[{"OBJECT_NAME":"SITRO-AIS 23","OBJECT_ID":"2024-199H","EPOCH":"2026-03-09T22:39:00.533088","MEAN_MOTION":14.95417613,"ECCENTRICITY":0.001348,"INCLINATION":97.3327,"RA_OF_ASC_NODE":273.3902,"ARG_OF_PERICENTER":42.7028,"MEAN_ANOMALY":317.5239,"EPHEMERIS_TYPE":0,"CLASSIFICATION_TYPE":"U","NORAD_CAT_ID":61742,"ELEMENT_SET_NO":999,"REV_AT_EPOCH":11693,"BSTAR":0.00028445892,"MEAN_MOTION_DOT":3.096e-5,"MEAN_MOTION_DDOT":0},{"OBJECT_NAME":"STARLINK-34424","OBJECT_ID":"2025-123E","EPOCH":"2026-03-09T22:00:01.999584","MEAN_MOTION":14.98349951,"ECCENTRICITY":0.0004039,"INCLINATION":70.0008,"RA_OF_ASC_NODE":194.059,"ARG_OF_PERICENTER":276.3711,"MEAN_ANOMALY":238.0798,"EPHEMERIS_TYPE":0,"CLASSIFICATION_TYPE":"U","NORAD_CAT_ID":64295,"ELEMENT_SET_NO":999,"REV_AT_EPOCH":556,"BSTAR":-0.002329989,"MEAN_MOTION_DOT":-0.00027801,"MEAN_MOTION_DDOT":0}]
